NOAA 15                 
1 25338U 98030A   21342.51159989  .00000039  00000+0  34786-4 0  9993
2 25338  98.6658   9.3405 0011208 130.7099 229.5056 14.26074541226055
NOAA 18                 
1 28654U 05018A   21342.47251658  .00000121  00000+0  89735-4 0  9998
2 28654  98.9747  47.8561 0014879 148.3579 211.8490 14.12664559853103
METOP-A                 
1 29499U 06044A   21341.90553177  .00000270  00000+0  45479-4 0  9996
2 29499  98.4770  15.2125 0197963 248.0246 198.6084 14.66847530782598
NOAA 19                 
1 33591U 09005A   21342.52362274  .00000037  00000+0  45285-4 0  9995
2 33591  99.1704   7.4383 0013983   8.1158 352.0237 14.12513464661494
METOP-B                 
1 38771U 12049A   21342.45171565  .00000016  00000+0  27350-4 0  9995
2 38771  98.6935  40.1325 0000870 165.9814 252.2649 14.21496504478591
SARAL                   
1 39086U 13009A   21342.50512133 -.00000001  00000+0  15931-4 0  9995
2 39086  98.5436 165.9724 0002073  97.1276 263.0143 14.32044111459155
METOP-C                 
1 43689U 18087A   21342.47702498  .00000017  00000+0  27674-4 0  9994
2 43689  98.7132  40.2617 0002307 213.2423 146.8609 14.21489994160171
ANGELS                  
1 44876U 19092D   21341.96223053  .00000690  00000+0  38280-4 0  9990
2 44876  97.4681 162.9510 0011107 308.4943  51.5293 15.16999768109209
